{"type": "FeatureCollection", "features": [ {"type": "Feature", "properties": {"norad_id": 43565, "name": "GSAT0222 (GALILEO 26)", "group": "gnss", "lat": 53.27608252115598, "lon": 46.141202256420605, "alt_km": 23233.20892147626, "timestamp": "2025-12-26T08:37:54.823815+00:00", "meta": {"OBJECT_NAME": "GSAT0222 (GALILEO 26)", "OBJECT_ID": "2018-060B", "EPOCH": "2025-12-22T03:15:04.306464", "MEAN_MOTION": 1.70475514, "ECCENTRICITY": 0.000605, "INCLINATION": 57.229, "RA_OF_ASC_NODE": 346.567, "ARG_OF_PERICENTER": 266.9186, "MEAN_ANOMALY": 93.0201, "EPHEMERIS_TYPE": 0, "CLASSIFICATION_TYPE": "U", "NORAD_CAT_ID": 43565, "ELEMENT_SET_NO": 999, "REV_AT_EPOCH": 4619, "BSTAR": 0, "MEAN_MOTION_DOT": -6.5e-07, "MEAN_MOTION_DDOT": 0}, "tle": {"line1": "1 43565U 18060B   25356.13546651 -.00000065  00000+0  00000+0 0  9990", "line2": "2 43565  57.2290 346.5670 0006050 266.9186  93.0201  1.70475514 46199"}}, "geometry": {"type": "Point", "coordinates": [46.141202256420605, 53.27608252115598]}}, {"type": "Feature", "properties": {"norad_id": 43566, "name": "GSAT0219 (GALILEO 23)", "group": "gnss", "lat": -48.66925936454742, "lon": -60.64378855133204, "alt_km": 23210.126006034374, "timestamp": "2025-12-26T08:37:54.823826+00:00", "meta": {"OBJECT_NAME": "GSAT0219 (GALILEO 23)", "OBJECT_ID": "2018-060C", "EPOCH": "2025-12-22T08:33:30.157056", "MEAN_MOTION": 1.70475755, "ECCENTRICITY": 0.00058833, "INCLINATION": 57.2283, "RA_OF_ASC_NODE": 346.5626, "ARG_OF_PERICENTER": 291.1394, "MEAN_ANOMALY": 68.8055, "EPHEMERIS_TYPE": 0, "CLASSIFICATION_TYPE": "U", "NORAD_CAT_ID": 43566, "ELEMENT_SET_NO": 999, "REV_AT_EPOCH": 4617, "BSTAR": 0, "MEAN_MOTION_DOT": -6.5e-07, "MEAN_MOTION_DDOT": 0}, "tle": {"line1": "1 43566U 18060C   25356.35659904 -.00000065  00000+0  00000+0 0  9991", "line2": "2 43566  57.2283 346.5626 0005883 291.1394  68.8055  1.70475755 46179"}}, "geometry": {"type": "Point", "coordinates": [-60.64378855133204, -48.66925936454742]}}, {"type": "Feature", "properties": {"norad_id": 43567, "name": "GSAT0220 (GALILEO 24)", "group": "gnss", "lat": 15.799645522090547, "lon": 155.94302371091885, "alt_km": 23231.194450663763, "timestamp": "2025-12-26T08:37:54.823837+00:00", "meta": {"OBJECT_NAME": "GSAT0220 (GALILEO 24)", "OBJECT_ID": "2018-060D", "EPOCH": "2025-12-23T03:56:18.956256", "MEAN_MOTION": 1.70475727, "ECCENTRICITY": 0.00061193, "INCLINATION": 57.2279, "RA_OF_ASC_NODE": 346.5416, "ARG_OF_PERICENTER": 288.3355, "MEAN_ANOMALY": 71.6054, "EPHEMERIS_TYPE": 0, "CLASSIFICATION_TYPE": "U", "NORAD_CAT_ID": 43567, "ELEMENT_SET_NO": 999, "REV_AT_EPOCH": 4617, "BSTAR": 0, "MEAN_MOTION_DOT": -6.3e-07, "MEAN_MOTION_DDOT": 0}, "tle": {"line1": "1 43567U 18060D   25357.16410829 -.00000063  00000+0  00000+0 0  9991", "line2": "2 43567  57.2279 346.5416 0006119 288.3355  71.6054  1.70475727 46170"}}, "geometry": {"type": "Point", "coordinates": [155.94302371091885, 15.799645522090547]}}, {"type": "Feature", "properties": {"norad_id": 43581, "name": "BEIDOU-3 M5 (C23)", "group": "gnss", "lat": 52.32348679031559, "lon": -61.649424508818846, "alt_km": 21523.139129613046, "timestamp": "2025-12-26T08:37:54.823851+00:00", "meta": {"OBJECT_NAME": "BEIDOU-3 M5 (C23)", "OBJECT_ID": "2018-062A", "EPOCH": "2025-12-24T01:25:43.982112", "MEAN_MOTION": 1.86228769, "ECCENTRICITY": 0.0001922, "INCLINATION": 54.09, "RA_OF_ASC_NODE": 188.2582, "ARG_OF_PERICENTER": 1.0455, "MEAN_ANOMALY": 358.9913, "EPHEMERIS_TYPE": 0, "CLASSIFICATION_TYPE": "U", "NORAD_CAT_ID": 43581, "ELEMENT_SET_NO": 999, "REV_AT_EPOCH": 5037, "BSTAR": 0, "MEAN_MOTION_DOT": 1.01e-06, "MEAN_MOTION_DDOT": 0}, "tle": {"line1": "1 43581U 18062A   25358.05953683  .00000101  00000+0  00000+0 0  9990", "line2": "2 43581  54.0900 188.2582 0001922   1.0455 358.9913  1.86228769 50376"}}, "geometry": {"type": "Point", "coordinates": [-61.649424508818846, 52.32348679031559]}}, {"type": "Feature", "properties": {"norad_id": 43582, "name": "BEIDOU-3 M6 (C24)", "group": "gnss", "lat": -11.400171191063578, "lon": 16.5763409258657, "alt_km": 21547.820797735883, "timestamp": "2025-12-26T08:37:54.823865+00:00", "meta": {"OBJECT_NAME": "BEIDOU-3 M6 (C24)", "OBJECT_ID": "2018-062B", "EPOCH": "2025-12-23T22:08:28.739040", "MEAN_MOTION": 1.86229712, "ECCENTRICITY": 0.00078704, "INCLINATION": 54.0895, "RA_OF_ASC_NODE": 188.252, "ARG_OF_PERICENTER": 49.2706, "MEAN_ANOMALY": 310.8346, "EPHEMERIS_TYPE": 0, "CLASSIFICATION_TYPE": "U", "NORAD_CAT_ID": 43582, "ELEMENT_SET_NO": 999, "REV_AT_EPOCH": 5037, "BSTAR": 0, "MEAN_MOTION_DOT": 1e-06, "MEAN_MOTION_DDOT": 0}, "tle": {"line1": "1 43582U 18062B   25357.92255485  .00000100  00000+0  00000+0 0  9990", "line2": "2 43582  54.0895 188.2520 0007870  49.2706 310.8346  1.86229712 50379"}}, "geometry": {"type": "Point", "coordinates": [16.5763409258657, -11.400171191063578]}}, {"type": "Feature", "properties": {"norad_id": 43602, "name": "BEIDOU-3 M12 (C26)", "group": "gnss", "lat": -41.99859238272529, "lon": 47.47523532065364, "alt_km": 21558.316992448, "timestamp": "2025-12-26T08:37:54.823876+00:00", "meta": {"OBJECT_NAME": "BEIDOU-3 M12 (C26)", "OBJECT_ID": "2018-067A", "EPOCH": "2025-12-26T00:11:59.699904", "MEAN_MOTION": 1.86227807, "ECCENTRICITY": 0.0009234, "INCLINATION": 54.1838, "RA_OF_ASC_NODE": 186.9129, "ARG_OF_PERICENTER": 41.9215, "MEAN_ANOMALY": 318.181, "EPHEMERIS_TYPE": 0, "CLASSIFICATION_TYPE": "U", "NORAD_CAT_ID": 43602, "ELEMENT_SET_NO": 999, "REV_AT_EPOCH": 4989, "BSTAR": 0, "MEAN_MOTION_DOT": 1.18e-06, "MEAN_MOTION_DDOT": 0}, "tle": {"line1": "1 43602U 18067A   25360.00832986  .00000118  00000+0  00000+0 0  9997", "line2": "2 43602  54.1838 186.9129 0009234  41.9215 318.1810  1.86227807 49895"}}, "geometry": {"type": "Point", "coordinates": [47.47523532065364, -41.99859238272529]}}, {"type": "Feature", "properties": {"norad_id": 43603, "name": "BEIDOU-3 M11 (C25)", "group": "gnss", "lat": 27.337418864234113, "lon": -15.064193250813183, "alt_km": 21529.791561801267, "timestamp": "2025-12-26T08:37:54.823891+00:00", "meta": {"OBJECT_NAME": "BEIDOU-3 M11 (C25)", "OBJECT_ID": "2018-067B", "EPOCH": "2025-12-24T12:46:04.310976", "MEAN_MOTION": 1.86227356, "ECCENTRICITY": 0.00056287, "INCLINATION": 54.181, "RA_OF_ASC_NODE": 186.927, "ARG_OF_PERICENTER": 37.873, "MEAN_ANOMALY": 322.1992, "EPHEMERIS_TYPE": 0, "CLASSIFICATION_TYPE": "U", "NORAD_CAT_ID": 43603, "ELEMENT_SET_NO": 999, "REV_AT_EPOCH": 4989, "BSTAR": 0, "MEAN_MOTION_DOT": 1.05e-06, "MEAN_MOTION_DDOT": 0}, "tle": {"line1": "1 43603U 18067B   25358.53199434  .00000105  00000+0  00000+0 0  9993", "line2": "2 43603  54.1810 186.9270 0005628  37.8730 322.1992  1.86227356 49897"}}, "geometry": {"type": "Point", "coordinates": [-15.064193250813183, 27.337418864234113]}}, {"type": "Feature", "properties": {"norad_id": 43622, "name": "BEIDOU-3 M13 (C32)", "group": "gnss", "lat": 4.612742833125667, "lon": -114.67739585520543, "alt_km": 21537.59196408372, "timestamp": "2025-12-26T08:37:54.823903+00:00", "meta": {"OBJECT_NAME": "BEIDOU-3 M13 (C32)", "OBJECT_ID": "2018-072A", "EPOCH": "2025-12-26T02:23:02.011776", "MEAN_MOTION": 1.86231101, "ECCENTRICITY": 0.0006441, "INCLINATION": 56.4701, "RA_OF_ASC_NODE": 68.3781, "ARG_OF_PERICENTER": 297.7459, "MEAN_ANOMALY": 62.2416, "EPHEMERIS_TYPE": 0, "CLASSIFICATION_TYPE": "U", "NORAD_CAT_ID": 43622, "ELEMENT_SET_NO": 999, "REV_AT_EPOCH": 4943, "BSTAR": 0, "MEAN_MOTION_DOT": -3e-07, "MEAN_MOTION_DDOT": 0}, "tle": {"line1": "1 43622U 18072A   25360.09932884 -.00000030  00000+0  00000+0 0  9996", "line2": "2 43622  56.4701  68.3781 0006441 297.7459  62.2416  1.86231101 49437"}}, "geometry": {"type": "Point", "coordinates": [-114.67739585520543, 4.612742833125667]}}, {"type": "Feature", "properties": {"norad_id": 43623, "name": "BEIDOU-3 M14 (C33)", "group": "gnss", "lat": -56.119870970728265, "lon": -31.141996198721415, "alt_km": 21529.385875051576, "timestamp": "2025-12-26T08:37:54.823914+00:00", "meta": {"OBJECT_NAME": "BEIDOU-3 M14 (C33)", "OBJECT_ID": "2018-072B", "EPOCH": "2025-12-23T06:43:13.861056", "MEAN_MOTION": 1.86231163, "ECCENTRICITY": 0.00035931, "INCLINATION": 56.4696, "RA_OF_ASC_NODE": 68.4654, "ARG_OF_PERICENTER": 327.0772, "MEAN_ANOMALY": 32.9541, "EPHEMERIS_TYPE": 0, "CLASSIFICATION_TYPE": "U", "NORAD_CAT_ID": 43623, "ELEMENT_SET_NO": 999, "REV_AT_EPOCH": 4937, "BSTAR": 0, "MEAN_MOTION_DOT": -2.6e-07, "MEAN_MOTION_DDOT": 0}, "tle": {"line1": "1 43623U 18072B   25357.28002154 -.00000026  00000+0  00000+0 0  9997", "line2": "2 43623  56.4696  68.4654 0003593 327.0772  32.9541  1.86231163 49375"}}, "geometry": {"type": "Point", "coordinates": [-31.141996198721415, -56.119870970728265]}}, {"type": "Feature", "properties": {"norad_id": 43647, "name": "BEIDOU-3 M16 (C35)", "group": "gnss", "lat": 16.769243758367825, "lon": 113.50552555482447, "alt_km": 21541.615653720095, "timestamp": "2025-12-26T08:37:54.823926+00:00", "meta": {"OBJECT_NAME": "BEIDOU-3 M16 (C35)", "OBJECT_ID": "2018-078A", "EPOCH": "2025-12-25T14:03:06.964128", "MEAN_MOTION": 1.86232241, "ECCENTRICITY": 0.0007497, "INCLINATION": 54.2499, "RA_OF_ASC_NODE": 306.0723, "ARG_OF_PERICENTER": 20.7001, "MEAN_ANOMALY": 339.3399, "EPHEMERIS_TYPE": 0, "CLASSIFICATION_TYPE": "U", "NORAD_CAT_ID": 43647, "ELEMENT_SET_NO": 999, "REV_AT_EPOCH": 4892, "BSTAR": 0, "MEAN_MOTION_DOT": -5.4e-07, "MEAN_MOTION_DDOT": 0}, "tle": {"line1": "1 43647U 18078A   25359.58549727 -.00000054  00000+0  00000+0 0  9997", "line2": "2 43647  54.2499 306.0723 0007497  20.7001 339.3399  1.86232241 48928"}}, "geometry": {"type": "Point", "coordinates": [113.50552555482447, 16.769243758367825]}}]}